start=new Date('2023-01-19T00:00:00.000Z').valueOf();
sats=[{"EPHEMERIS_TYPE":"0","RA_OF_ASC_NODE":"134.0875","MEAN_MOTION_DOT":"0.00002729","MEAN_MOTION_DDOT":"0.0000000000000","FILE":"3753991","ARG_OF_PERICENTER":"92.6096","PERIOD":"95.437","SITE":"AFETR","MEAN_ANOMALY":"267.5076","DECAY_DATE":null,"REF_FRAME":"TEME","MEAN_MOTION":"15.08846284","TLE_LINE1":"1 51970U 22025Q   23018.60780686  .00002729  00000-0  18947-3 0  9990","OBJECT_ID":"2022-025Q","APOAPSIS":"540.814","BSTAR":"0.00018947000000","CENTER_NAME":"EARTH","OBJECT_TYPE":"PAYLOAD","PERIAPSIS":"538.639","ELEMENT_SET_NO":"999","TIME_SYSTEM":"UTC","INCLINATION":"53.2162","TLE_LINE2":"2 51970  53.2162 134.0875 0001572  92.6096 267.5076 15.08846284 49279","MEAN_ELEMENT_THEORY":"SGP4","ECCENTRICITY":"0.00015720","NORAD_CAT_ID":"51970","OBJECT_NAME":"STARLINK-3677","COUNTRY_CODE":"US","REV_AT_EPOCH":"4927","CLASSIFICATION_TYPE":"U","GP_ID":"223426830","RCS_SIZE":"LARGE","LAUNCH_DATE":"2022-03-09","SEMIMAJOR_AXIS":"6917.861","EPOCH":"2023-01-18T14:35:14.512704"},{"TIME_SYSTEM":"UTC","ELEMENT_SET_NO":"999","INCLINATION":"53.2144","APOAPSIS":"540.779","OBJECT_TYPE":"PAYLOAD","PERIAPSIS":"538.462","CENTER_NAME":"EARTH","BSTAR":"0.00247000000000","LAUNCH_DATE":"2022-03-09","SEMIMAJOR_AXIS":"6917.756","EPOCH":"2023-01-18T14:56:26.651616","ECCENTRICITY":"0.00016750","TLE_LINE2":"2 51971  53.2144 134.0288 0001675  90.1561 269.9623 15.08880812 48180","MEAN_ELEMENT_THEORY":"SGP4","OBJECT_NAME":"STARLINK-3669","NORAD_CAT_ID":"51971","COUNTRY_CODE":"US","GP_ID":"223455396","CLASSIFICATION_TYPE":"U","RCS_SIZE":"MEDIUM","REV_AT_EPOCH":"4818","MEAN_MOTION_DDOT":"0.0000000000000","ARG_OF_PERICENTER":"90.1561","FILE":"3754254","RA_OF_ASC_NODE":"134.0288","EPHEMERIS_TYPE":"0","MEAN_MOTION_DOT":"0.00039286","MEAN_MOTION":"15.08880812","DECAY_DATE":null,"REF_FRAME":"TEME","TLE_LINE1":"1 51971U 22025R   23018.62253069  .00039286  00000-0  24700-2 0  9994","OBJECT_ID":"2022-025R","PERIOD":"95.435","SITE":"AFETR","MEAN_ANOMALY":"269.9623"},{"ARG_OF_PERICENTER":"60.6045","FILE":"3754254","MEAN_MOTION_DDOT":"0.0000000000000","MEAN_MOTION_DOT":"0.00016067","EPHEMERIS_TYPE":"0","RA_OF_ASC_NODE":"133.8131","OBJECT_ID":"2022-025S","TLE_LINE1":"1 51972U 22025S   23018.67036568  .00016067  00000-0  10244-2 0  9993","MEAN_MOTION":"15.08871348","REF_FRAME":"TEME","DECAY_DATE":null,"MEAN_ANOMALY":"299.5151","SITE":"AFETR","PERIOD":"95.436","INCLINATION":"53.2143","TIME_SYSTEM":"UTC","ELEMENT_SET_NO":"999","OBJECT_TYPE":"PAYLOAD","PERIAPSIS":"538.232","CENTER_NAME":"EARTH","BSTAR":"0.00102440000000","APOAPSIS":"541.067","EPOCH":"2023-01-18T16:05:19.594752","SEMIMAJOR_AXIS":"6917.785","LAUNCH_DATE":"2022-03-09","GP_ID":"223456648","CLASSIFICATION_TYPE":"U","RCS_SIZE":"LARGE","REV_AT_EPOCH":"4819","COUNTRY_CODE":"US","NORAD_CAT_ID":"51972","OBJECT_NAME":"STARLINK-3671","ECCENTRICITY":"0.00020490","MEAN_ELEMENT_THEORY":"SGP4","TLE_LINE2":"2 51972  53.2143 133.8131 0002049  60.6045 299.5151 15.08871348 48199"},{"INCLINATION":"53.2164","ELEMENT_SET_NO":"999","TIME_SYSTEM":"UTC","APOAPSIS":"541.158","BSTAR":"0.00208910000000","CENTER_NAME":"EARTH","OBJECT_TYPE":"PAYLOAD","PERIAPSIS":"538.137","LAUNCH_DATE":"2022-03-09","SEMIMAJOR_AXIS":"6917.783","EPOCH":"2023-01-18T14:40:32.743776","NORAD_CAT_ID":"51973","OBJECT_NAME":"STARLINK-3679","MEAN_ELEMENT_THEORY":"SGP4","TLE_LINE2":"2 51973  53.2164 134.0671 0002184  72.2678 287.8552 15.08871992 48185","ECCENTRICITY":"0.00021840","REV_AT_EPOCH":"4818","GP_ID":"223456398","CLASSIFICATION_TYPE":"U","RCS_SIZE":"LARGE","COUNTRY_CODE":"US","MEAN_MOTION_DDOT":"0.0000000000000","FILE":"3754254","ARG_OF_PERICENTER":"72.2678","EPHEMERIS_TYPE":"0","RA_OF_ASC_NODE":"134.0671","MEAN_MOTION_DOT":"0.00033146","TLE_LINE1":"1 51973U 22025T   23018.61149009  .00033146  00000-0  20891-2 0  9999","REF_FRAME":"TEME","DECAY_DATE":null,"MEAN_MOTION":"15.08871992","OBJECT_ID":"2022-025T","PERIOD":"95.436","MEAN_ANOMALY":"287.8552","SITE":"AFETR"},{"TIME_SYSTEM":"UTC","ELEMENT_SET_NO":"999","INCLINATION":"53.2159","APOAPSIS":"541.161","CENTER_NAME":"EARTH","OBJECT_TYPE":"PAYLOAD","PERIAPSIS":"538.137","BSTAR":"0.00178230000000","LAUNCH_DATE":"2022-03-09","SEMIMAJOR_AXIS":"6917.784","EPOCH":"2023-01-18T14:24:38.720160","ECCENTRICITY":"0.00021860","TLE_LINE2":"2 51974  53.2159 134.1130 0002186  63.7324 296.3893 15.08871595 49268","MEAN_ELEMENT_THEORY":"SGP4","NORAD_CAT_ID":"51974","OBJECT_NAME":"STARLINK-3672","COUNTRY_CODE":"US","CLASSIFICATION_TYPE":"U","GP_ID":"223432085","RCS_SIZE":"LARGE","REV_AT_EPOCH":"4926","MEAN_MOTION_DDOT":"0.0000000000000","ARG_OF_PERICENTER":"63.7324","FILE":"3754230","RA_OF_ASC_NODE":"134.1130","EPHEMERIS_TYPE":"0","MEAN_MOTION_DOT":"0.00028216","MEAN_MOTION":"15.08871595","REF_FRAME":"TEME","DECAY_DATE":null,"TLE_LINE1":"1 51974U 22025U   23018.60044815  .00028216  00000-0  17823-2 0  9991","OBJECT_ID":"2022-025U","PERIOD":"95.436","SITE":"AFETR","MEAN_ANOMALY":"296.3893"},{"EPHEMERIS_TYPE":"0","RA_OF_ASC_NODE":"133.8207","MEAN_MOTION_DOT":"0.00013780","MEAN_MOTION_DDOT":"0.0000000000000","FILE":"3754254","ARG_OF_PERICENTER":"66.9639","PERIOD":"95.436","MEAN_ANOMALY":"293.1606","SITE":"AFETR","TLE_LINE1":"1 51975U 22025V   23018.66763912  .00013780  00000-0  88149-3 0  9994","DECAY_DATE":null,"REF_FRAME":"TEME","MEAN_MOTION":"15.08869754","OBJECT_ID":"2022-025V","APOAPSIS":"541.318","BSTAR":"0.00088149000000","CENTER_NAME":"EARTH","OBJECT_TYPE":"PAYLOAD","PERIAPSIS":"537.991","INCLINATION":"53.2150","ELEMENT_SET_NO":"999","TIME_SYSTEM":"UTC","NORAD_CAT_ID":"51975","OBJECT_NAME":"STARLINK-3674","MEAN_ELEMENT_THEORY":"SGP4","TLE_LINE2":"2 51975  53.2150 133.8207 0002405  66.9639 293.1606 15.08869754 48191","ECCENTRICITY":"0.00024050","REV_AT_EPOCH":"4819","CLASSIFICATION_TYPE":"U","GP_ID":"223455897","RCS_SIZE":"LARGE","COUNTRY_CODE":"US","LAUNCH_DATE":"2022-03-09","EPOCH":"2023-01-18T16:01:24.019968","SEMIMAJOR_AXIS":"6917.789"},{"OBJECT_TYPE":"PAYLOAD","CENTER_NAME":"EARTH","PERIAPSIS":"538.750","BSTAR":"0.00141840000000","APOAPSIS":"540.597","INCLINATION":"53.2131","TIME_SYSTEM":"UTC","ELEMENT_SET_NO":"999","CLASSIFICATION_TYPE":"U","GP_ID":"223456148","RCS_SIZE":"LARGE","REV_AT_EPOCH":"4805","COUNTRY_CODE":"US","OBJECT_NAME":"STARLINK-3663","NORAD_CAT_ID":"51976","ECCENTRICITY":"0.00013350","TLE_LINE2":"2 51976  53.2131 143.8293 0001335  85.1555 274.9589 15.08863552 48050","MEAN_ELEMENT_THEORY":"SGP4","EPOCH":"2023-01-18T15:58:42.542688","SEMIMAJOR_AXIS":"6917.808","LAUNCH_DATE":"2022-03-09","MEAN_MOTION_DOT":"0.00022372","RA_OF_ASC_NODE":"143.8293","EPHEMERIS_TYPE":"0","ARG_OF_PERICENTER":"85.1555","FILE":"3754254","MEAN_MOTION_DDOT":"0.0000000000000","MEAN_ANOMALY":"274.9589","SITE":"AFETR","PERIOD":"95.436","OBJECT_ID":"2022-025W","TLE_LINE1":"1 51976U 22025W   23018.66577017  .00022372  00000-0  14184-2 0  9998","MEAN_MOTION":"15.08863552","REF_FRAME":"TEME","DECAY_DATE":null},{"ELEMENT_SET_NO":"999","TIME_SYSTEM":"UTC","INCLINATION":"53.2144","APOAPSIS":"540.854","BSTAR":"0.00160520000000","PERIAPSIS":"538.437","OBJECT_TYPE":"PAYLOAD","CENTER_NAME":"EARTH","LAUNCH_DATE":"2022-03-09","SEMIMAJOR_AXIS":"6917.781","EPOCH":"2023-01-18T14:20:41.350848","MEAN_ELEMENT_THEORY":"SGP4","TLE_LINE2":"2 51977  53.2144 124.1367 0001747  78.2173 281.9015 15.08872600 48310","ECCENTRICITY":"0.00017470","NORAD_CAT_ID":"51977","OBJECT_NAME":"STARLINK-3660","COUNTRY_CODE":"US","REV_AT_EPOCH":"4831","CLASSIFICATION_TYPE":"U","GP_ID":"223456898","RCS_SIZE":"LARGE","MEAN_MOTION_DDOT":"0.0000000000000","FILE":"3754254","ARG_OF_PERICENTER":"78.2173","EPHEMERIS_TYPE":"0","RA_OF_ASC_NODE":"124.1367","MEAN_MOTION_DOT":"0.00025374","DECAY_DATE":null,"REF_FRAME":"TEME","MEAN_MOTION":"15.08872600","TLE_LINE1":"1 51977U 22025X   23018.59770082  .00025374  00000-0  16052-2 0  9999","OBJECT_ID":"2022-025X","PERIOD":"95.435","SITE":"AFETR","MEAN_ANOMALY":"281.9015"},{"LAUNCH_DATE":"2022-03-09","SEMIMAJOR_AXIS":"6917.792","EPOCH":"2023-01-18T15:42:46.730592","ECCENTRICITY":"0.00017520","MEAN_ELEMENT_THEORY":"SGP4","TLE_LINE2":"2 51978  53.2182 143.8759 0001752  64.2567 295.8606 15.08869010 48045","NORAD_CAT_ID":"51978","OBJECT_NAME":"STARLINK-3666","COUNTRY_CODE":"US","GP_ID":"223455147","RCS_SIZE":"LARGE","CLASSIFICATION_TYPE":"U","REV_AT_EPOCH":"4804","TIME_SYSTEM":"UTC","ELEMENT_SET_NO":"999","INCLINATION":"53.2182","APOAPSIS":"540.869","CENTER_NAME":"EARTH","OBJECT_TYPE":"PAYLOAD","PERIAPSIS":"538.445","BSTAR":"0.00024907000000","MEAN_MOTION":"15.08869010","REF_FRAME":"TEME","DECAY_DATE":null,"TLE_LINE1":"1 51978U 22025Y   23018.65470753  .00003681  00000-0  24907-3 0  9995","OBJECT_ID":"2022-025Y","PERIOD":"95.436","SITE":"AFETR","MEAN_ANOMALY":"295.8606","MEAN_MOTION_DDOT":"0.0000000000000","ARG_OF_PERICENTER":"64.2567","FILE":"3754254","EPHEMERIS_TYPE":"0","RA_OF_ASC_NODE":"143.8759","MEAN_MOTION_DOT":"0.00003681"},{"INCLINATION":"53.2121","ELEMENT_SET_NO":"999","TIME_SYSTEM":"UTC","BSTAR":"0.00171290000000","OBJECT_TYPE":"PAYLOAD","CENTER_NAME":"EARTH","PERIAPSIS":"538.440","APOAPSIS":"540.883","SEMIMAJOR_AXIS":"6917.796","EPOCH":"2023-01-18T14:28:37.275744","LAUNCH_DATE":"2022-03-09","REV_AT_EPOCH":"4915","GP_ID":"223426925","CLASSIFICATION_TYPE":"U","RCS_SIZE":"LARGE","COUNTRY_CODE":"US","NORAD_CAT_ID":"51979","OBJECT_NAME":"STARLINK-3656","MEAN_ELEMENT_THEORY":"SGP4","TLE_LINE2":"2 51979  53.2121 144.1125 0001766  75.6049 284.5139 15.08867497 49152","ECCENTRICITY":"0.00017660","FILE":"3753994","ARG_OF_PERICENTER":"75.6049","MEAN_MOTION_DDOT":"0.0000000000000","MEAN_MOTION_DOT":"0.00027099","RA_OF_ASC_NODE":"144.1125","EPHEMERIS_TYPE":"0","OBJECT_ID":"2022-025Z","TLE_LINE1":"1 51979U 22025Z   23018.60320921  .00027099  00000-0  17129-2 0  9998","DECAY_DATE":null,"REF_FRAME":"TEME","MEAN_MOTION":"15.08867497","MEAN_ANOMALY":"284.5139","SITE":"AFETR","PERIOD":"95.436"}];
